{
    "links": {
        "self": "http://www.neowsapp.com/rest/v1/neo/3841542?api_key=iIulBulltgU6a56xZRHN4H3l9WmuAYTsLGpBGhQ2"
    },
    "id": "3841542",
    "neo_reference_id": "3841542",
    "name": "(2019 HO2)",
    "designation": "2019 HO2",
    "nasa_jpl_url": "http://ssd.jpl.nasa.gov/sbdb.cgi?sstr=3841542",
    "absolute_magnitude_h": 24.4,
    "estimated_diameter": {
        "kilometers": {
            "estimated_diameter_min": 0.0350392641,
            "estimated_diameter_max": 0.0783501764
        },
        "meters": {
            "estimated_diameter_min": 35.0392641108,
            "estimated_diameter_max": 78.3501764334
        },
        "miles": {
            "estimated_diameter_min": 0.0217723826,
            "estimated_diameter_max": 0.0486845275
        },
        "feet": {
            "estimated_diameter_min": 114.9582192654,
            "estimated_diameter_max": 257.0543928497
        }
    },
    "is_potentially_hazardous_asteroid": false,
    "close_approach_data": [
        {
            "close_approach_date": "2019-04-13",
            "close_approach_date_full": "2019-Apr-13 01:06",
            "epoch_date_close_approach": 1555117560000,
            "relative_velocity": {
                "kilometers_per_second": "10.3932617406",
                "kilometers_per_hour": "37415.7422662957",
                "miles_per_hour": "23248.6871876325"
            },
            "miss_distance": {
                "astronomical": "0.0963813875",
                "lunar": "37.4923597375",
                "kilometers": "14418450.277644625",
                "miles": "8959209.558460825"
            },
            "orbiting_body": "Earth"
        }
    ],
    "orbital_data": {
        "orbit_id": "6",
        "orbit_determination_date": "2019-05-12 08:17:26",
        "first_observation_date": "2019-04-24",
        "last_observation_date": "2019-05-08",
        "data_arc_in_days": 14,
        "observations_used": 44,
        "orbit_uncertainty": "8",
        "minimum_orbit_intersection": ".0213631",
        "jupiter_tisserand_invariant": "3.236",
        "epoch_osculation": "2458599.5",
        "eccentricity": ".5871024395454364",
        "semi_major_axis": "2.446291011527254",
        "inclination": "2.56513697812436",
        "ascending_node_longitude": "192.2132677700388",
        "orbital_period": "1397.528284264021",
        "perihelion_distance": "1.01006759082153",
        "perihelion_argument": "337.976777588082",
        "aphelion_distance": "3.882514432232978",
        "perihelion_time": "2458563.040517365077",
        "mean_anomaly": "9.391876999100955",
        "mean_motion": ".2575976486870077",
        "equinox": "J2000",
        "orbit_class": {
            "orbit_class_type": "APO",
            "orbit_class_description": "Near-Earth asteroid orbits which cross the Earth’s orbit similar to that of 1862 Apollo",
            "orbit_class_range": "a (semi-major axis) > 1.0 AU; q (perihelion) < 1.017 AU"
        }
    },
    "is_sentry_object": false
}